norad_id,name,regime,epoch,line1,line2,inclination,eccentricity,mean_motion,raan,arg_pericenter,mean_anomaly
28082,CHINASAT 20,EGO,16041.04694898,1 28082U 03052A   16041.04694898 -.00000337  00000-0  00000+0 0  7980\,2 28082   2.5403  73.7539 0004218 251.4901 294.4564  1.00272722 44855,2.5403,0.0004218,1.00272722,73.7539,251.4901,294.4564
28082,CHINASAT 20,EGO,16041.93817116,1 28082U 03052A   16041.93817116 -.00000339 +00000-0 +00000-0 0 0807\,2 28082 002.5421 073.7459 0004218 249.5561 258.1147 01.0027204204486,2.5421,0.0004218,1.00272042,73.7459,249.5561,258.1147
28082,CHINASAT 20,EGO,16042.00489086,1 28082U 03052A   16042.00489086 -.00000339 +00000-0 +00000-0 0 0809\,2 28082 002.5422 073.7470 0004218 249.5750 282.1795 01.0027201004486,2.5422,0.0004218,1.0027201,73.747,249.575,282.1795
28082,CHINASAT 20,EGO,16042.52717404,1 28082U 03052A   16042.52717404 -.00000011  00000-0  10000-3 0  8001\,2 28082   2.5438  73.7689 0004593 249.4548 110.8103  1.00268262 44875,2.5438,0.0004593,1.00268262,73.7689,249.4548,110.8103
28082,CHINASAT 20,EGO,16043.01675007,1 28082U 03052A   16043.01675007 -.00000340  00000-0  00000+0 0  8019\,2 28082   2.5442  73.7356 0004216 249.9114 287.1196  1.00271516 44873,2.5442,0.0004216,1.00271516,73.7356,249.9114,287.1196
28082,CHINASAT 20,EGO,16043.99082922,1 28082U 03052A   16043.99082922 -.00000342 +00000-0 +00000-0 0 0810\,2 28082 002.5461 073.7294 0004255 249.3105 279.3505 01.0027093404488,2.5461,0.0004255,1.00270934,73.7294,249.3105,279.3505
28082,CHINASAT 20,EGO,16044.03405036,1 28082U 03052A   16044.03405036 -.00000342  00000-0  00000+0 0  8028\,2 28082   2.5462  73.7295 0004254 249.4295 294.8332  1.00270910 44889,2.5462,0.0004254,1.0027091,73.7295,249.4295,294.8332
28082,CHINASAT 20,EGO,16044.54346122,1 28082U 03052A   16044.54346122 -.00000343 +00000-0 +00000-0 0 0804\,2 28082 002.5472 073.7242 0004268 249.2563 118.8997 01.0027067804489,2.5472,0.0004268,1.00270678,73.7242,249.2563,118.8997
28082,CHINASAT 20,EGO,16045.04105066,1 28082U 03052A   16045.04105066 -.00000344  00000-0  00000+0 0  8033\,2 28082   2.5481  73.7191 0004269 249.7666 298.0139  1.00270425 44899,2.5481,0.0004269,1.00270425,73.7191,249.7666,298.0139
28082,CHINASAT 20,EGO,16045.97953392,1 28082U 03052A   16045.97953392 -.00000346 +00000-0 +00000-0 0 0805\,2 28082 002.5499 073.7081 0004285 249.7491 276.8146 01.0026996404490,2.5499,0.0004285,1.00269964,73.7081,249.7491,276.8146
28082,CHINASAT 20,EGO,16046.05109457,1 28082U 03052A   16046.05109457 -.00000346  00000-0  00000+0 0  8046\,2 28082   2.5500  73.7093 0004297 250.0970 302.2962  1.00269893 44907,2.55,0.0004297,1.00269893,73.7093,250.097,302.2962
28082,CHINASAT 20,EGO,16046.96469259,1 28082U 03052A   16046.96469259 -.00000348 +00000-0 +00000-0 0 0814\,2 28082 002.5520 073.7012 0004378 249.1195 273.0684 01.0026939004491,2.552,0.0004378,1.0026939,73.7012,249.1195,273.0684
28082,CHINASAT 20,EGO,16047.88236021,1 28082U 03052A   16047.88236021 -.00000349  00000-0  00000+0 0  8050\,2 28082   2.5539  73.6913 0004410 249.1339 244.3189  1.00268942 44927,2.5539,0.000441,1.00268942,73.6913,249.1339,244.3189
28082,CHINASAT 20,EGO,16047.95518946,1 28082U 03052A   16047.95518946 -.00000349 +00000-0 +00000-0 0 0807\,2 28082 002.5541 073.6921 0004427 249.1555 270.5854 01.0026889104492,2.5541,0.0004427,1.00268891,73.6921,249.1555,270.5854
28082,CHINASAT 20,EGO,16048.95130748,1 28082U 03052A   16048.95130748 -.00000350 +00000-0 +00000-0 0 0816\,2 28082 002.5561 073.6841 0004500 249.0385 270.2831 01.0026842704493,2.5561,0.00045,1.00268427,73.6841,249.0385,270.2831
28082,CHINASAT 20,EGO,16049.02643197,1 28082U 03052A   16049.02643197 -.00000350  00000-0  00000+0 0  8067\,2 28082   2.5562  73.6850 0004501 249.4588 296.9792  1.00268380 44933,2.5562,0.0004501,1.0026838,73.685,249.4588,296.9792
28082,CHINASAT 20,EGO,16049.50801020,1 28082U 03052A   16049.50801020  .00000029  00000-0  10000-3 0  8080\,2 28082   2.5574  73.7266 0004553 255.8326 104.4054  1.00264940 44949,2.5574,0.0004553,1.0026494,73.7266,255.8326,104.4054
28082,CHINASAT 20,EGO,16049.52962883,1 28082U 03052A   16049.52962883 -.00000351 +00000-0 +00000-0 0 0808\,2 28082 002.5572 073.6797 0004538 249.2453 118.8387 01.0026815904494,2.5572,0.0004538,1.00268159,73.6797,249.2453,118.8387
28082,CHINASAT 20,EGO,16050.59332965,1 28082U 03052A   16050.59332965 -.00000350  00000-0  00000+0 0  8092\,2 28082   2.5591  73.6330 0004517 248.7855 143.3097  1.00267627 44952,2.5591,0.0004517,1.00267627,73.633,248.7855,143.3097
28082,CHINASAT 20,EGO,16050.97935542,1 28082U 03052A   16050.97935542 -.00000350 +00000-0 +00000-0 0 0812\,2 28082 002.5599 073.6544 0004496 248.1520 283.2648 01.0026740604495,2.5599,0.0004496,1.00267406,73.6544,248.152,283.2648
28082,CHINASAT 20,EGO,16051.93697396,1 28082U 03052A   16051.93697396 -.00000349 +00000-0 +00000-0 0 0819\,2 28082 002.5618 073.6462 0004494 248.3391 268.7556 01.0026696004496,2.5618,0.0004494,1.0026696,73.6462,248.3391,268.7556
28082,CHINASAT 20,EGO,16052.00958228,1 28082U 03052A   16052.00958228 -.00000349  00000-0  00000+0 0  8106\,2 28082   2.5619  73.6473 0004494 248.3389 294.9639  1.00266927 44961,2.5619,0.0004494,1.00266927,73.6473,248.3389,294.9639
28082,CHINASAT 20,EGO,16052.95363744,1 28082U 03052A   16052.95363744 -.00000347 +00000-0 +00000-0 0 0813\,2 28082 002.5639 073.6373 0004484 248.4468 275.6393 01.0026651504497,2.5639,0.0004484,1.00266515,73.6373,248.4468,275.6393
28082,CHINASAT 20,EGO,16053.01510756,1 28082U 03052A   16053.01510756 -.00000347  00000-0  00000+0 0  8117\,2 28082   2.5640  73.6373 0004483 248.4393 297.8355  1.00266488 44978,2.564,0.0004483,1.00266488,73.6373,248.4393,297.8355
28082,CHINASAT 20,EGO,16053.52007955,1 28082U 03052A   16053.52007955 -.00000346 +00000-0 +00000-0 0 0816\,2 28082 002.5640 073.5727 0004647 249.8830 118.7389 01.0026638804498,2.564,0.0004647,1.00266388,73.5727,249.883,118.7389
28082,CHINASAT 20,EGO,16054.66512501,1 28082U 03052A   16054.66512501 -.00000344  00000-0  00000+0 0  8138\,2 28082   2.5698  73.7691 0004835 251.3964 170.4090  1.00274061 44993,2.5698,0.0004835,1.00274061,73.7691,251.3964,170.409
28082,CHINASAT 20,EGO,16054.67739373,1 28082U 03052A   16054.67739373 -.00000344 +00000-0 +00000-0 0 0814\,2 28082 002.5698 073.7699 0004819 251.5148 174.7197 01.0027425304499,2.5698,0.0004819,1.00274253,73.7699,251.5148,174.7197
28082,CHINASAT 20,EGO,16055.51152297,1 28082U 03052A   16055.51152297 -.00000342 +00000-0 +00000-0 0 0815\,2 28082 002.5715 073.7561 0004826 251.2150 116.1500 01.0027408004500,2.5715,0.0004826,1.0027408,73.7561,251.215,116.15
28082,CHINASAT 20,EGO,16056.49154770,1 28082U 03052A   16056.49154770 -.00000339  00000-0  00000+0 0  8146\,2 28082   2.5734  73.7350 0004665 253.5332 107.6471  1.00274952 45018,2.5734,0.0004665,1.00274952,73.735,253.5332,107.6471
28082,CHINASAT 20,EGO,16057.63880786,1 28082U 03052A   16057.63880786 -.00000337  00000-0  00000+0 0  8155\,2 28082   2.5750  73.7235 0004551 251.2020 164.1741  1.00276972 45024,2.575,0.0004551,1.00276972,73.7235,251.202,164.1741
28082,CHINASAT 20,EGO,16057.95187911,1 28082U 03052A   16057.95187911 -.00000337 +00000-0 +00000-0 0 0823\,2 28082 002.5752 073.7156 0004521 251.6912 276.7101 01.0027663204502,2.5752,0.0004521,1.00276632,73.7156,251.6912,276.7101
28082,CHINASAT 20,EGO,16058.58475769,1 28082U 03052A   16058.58475769 -.00000335  00000-0  00000+0 0  8160\,2 28082   2.5758  73.6589 0004285 255.4034 141.5183  1.00276104 45035,2.5758,0.0004285,1.00276104,73.6589,255.4034,141.5183
28082,CHINASAT 20,EGO,16058.96075034,1 28082U 03052A   16058.96075034 -.00000335 +00000-0 +00000-0 0 0824\,2 28082 002.5764 073.6560 0004281 255.6494 277.0080 01.0027590104503,2.5764,0.0004281,1.00275901,73.656,255.6494,277.008
28082,CHINASAT 20,EGO,16059.59258061,1 28082U 03052A   16059.59258061 -.00000334  00000-0  00000+0 0  8176\,2 28082   2.5775  73.6492 0004267 256.0496 144.7038  1.00275551 45046,2.5775,0.0004267,1.00275551,73.6492,256.0496,144.7038
28082,CHINASAT 20,EGO,16059.96745979,1 28082U 03052A   16059.96745979 -.00000334 +00000-0 +00000-0 0 0824\,2 28082 002.5780 073.6388 0004230 258.9965 277.0948 01.0027527504504,2.578,0.000423,1.00275275,73.6388,258.9965,277.0948
28082,CHINASAT 20,EGO,16060.69105116,1 28082U 03052A   16060.69105116 -.00000333  00000-0  00000+0 0  8181\,2 28082   2.5795  73.6371 0004076 261.6338 175.6702  1.00274839 45059,2.5795,0.0004076,1.00274839,73.6371,261.6338,175.6702
28082,CHINASAT 20,EGO,16060.93038292,1 28082U 03052A   16060.93038292 -.00000334 +00000-0 +00000-0 0 0820\,2 28082 002.5799 073.6348 0004075 261.6419 262.0622 01.0027473204505,2.5799,0.0004075,1.00274732,73.6348,261.6419,262.0622
28082,CHINASAT 20,EGO,16061.82165719,1 28082U 03052A   16061.82165719 -.00000333  00000-0  00000+0 0  8193\,2 28082   2.5816  73.6259 0004074 261.8346 223.6237  1.00274329 45069,2.5816,0.0004074,1.00274329,73.6259,261.8346,223.6237
28082,CHINASAT 20,EGO,16061.93820314,1 28082U 03052A   16061.93820314 -.00000334 +00000-0 +00000-0 0 0823\,2 28082 002.5818 073.6256 0004076 261.8905 265.6407 01.0027428504506,2.5818,0.0004076,1.00274285,73.6256,261.8905,265.6407
28082,CHINASAT 20,EGO,16062.91083366,1 28082U 03052A   16062.91083366 -.00000334  00000-0  00000+0 0  8204\,2 28082   2.5837  73.6146 0004076 261.9525 256.7022  1.00273819 45072,2.5837,0.0004076,1.00273819,73.6146,261.9525,256.7022
28082,CHINASAT 20,EGO,16062.99667669,1 28082U 03052A   16062.99667669 -.00000334 +00000-0 +00000-0 0 0822\,2 28082 002.5839 073.6152 0004080 262.0269 287.6154 01.0027375904507,2.5839,0.000408,1.00273759,73.6152,262.0269,287.6154
28082,CHINASAT 20,EGO,16063.46975494,1 28082U 03052A   16063.46975494  .00000000  00000-0  10000-3 0  8223\,2 28082   2.5850  73.6438 0003949 264.2016  96.1706  1.00268904 45085,2.585,0.0003949,1.00268904,73.6438,264.2016,96.1706
